ONEWEB-0522             
1 54140U 22138AD  26178.30193761  .00000045  00000+0  80093-4 0  9996
2 54140  87.9187 302.9429 0001771 102.8232 257.3099 13.19725041178148
ONEWEB-0523             
1 54141U 22138AE  26178.25648932  .00000011  00000+0 -41660-5 0  9998
2 54141  87.9197 272.4342 0002715  90.1750 269.9694 13.20772142180631
ONEWEB-0524             
1 54142U 22138AF  26178.24639196  .00000029  00000+0  40222-4 0  9990
2 54142  87.9195 272.4330 0002851 107.7153 252.4292 13.20772043180631
ONEWEB-0525             
1 54143U 22138AG  26178.09342762  .00000028  00000+0  37645-4 0  9998
2 54143  87.9186 302.9918 0001751 111.8900 248.2419 13.19725639178130
ONEWEB-0526             
1 54144U 22138AH  26178.27822788  .00000052  00000+0  97223-4 0  9995
2 54144  87.9187 302.9558 0001912 104.4897 255.6448 13.19727196178138
ONEWEB-0529             
1 54145U 22138AJ  26178.28139998  .00000090  00000+0  19229-3 0  9992
2 54145  87.9179 302.9634 0001813 106.5537 253.5795 13.19725782178152
ONEWEB-0531             
1 54146U 22138AK  26178.30868339 -.00000002  00000+0 -36741-4 0  9998
2 54146  87.9197 272.4183 0002881  95.3481 264.7981 13.20771602180644
ONEWEB-0535             
1 54147U 22138AL  26178.31456131  .00000013  00000+0  10107-5 0  9992
2 54147  87.9187 302.9417 0002108  92.8216 267.3158 13.19725961178178
ONEWEB-0536             
1 54148U 22138AM  26178.29521104  .00000062  00000+0  11942-3 0  9993
2 54148  87.9184 272.4424 0003051  97.7308 262.4172 13.20772033180639
ONEWEB-0527             
1 54642U 22166A   26178.16856938 -.00000033  00000+0 -11106-3 0  9997
2 54642  87.9247 242.0114 0002045  99.8685 260.2680 13.21824113172853
ONEWEB-0528             
1 54643U 22166B   26178.16940279  .00000052  00000+0  93484-4 0  9999
2 54643  87.9248 242.0136 0001994 104.5745 255.5610 13.21825006172865
ONEWEB-0539             
1 54644U 22166C   26178.20724751  .00000065  00000+0  12598-3 0  9990
2 54644  87.9257 241.9783 0001889  93.0230 267.1120 13.21827695172867
ONEWEB-0540             
1 54645U 22166D   26178.21410854  .00000103  00000+0  21668-3 0  9999
2 54645  87.9247 242.0065 0002018  94.8491 265.2873 13.21828079172855
ONEWEB-0542             
1 54646U 22166E   26178.21734672  .00000059  00000+0  11176-3 0  9990
2 54646  87.9256 241.9751 0001895  90.9337 269.2014 13.21824779172869
ONEWEB-0545             
1 54647U 22166F   26178.18201543  .00000012  00000+0 -16636-5 0  9991
2 54647  87.9248 241.9931 0001894  82.6794 277.4555 13.21828981172821
ONEWEB-0580             
1 54648U 22166G   26178.23245827  .00000043  00000+0  72312-4 0  9996
2 54648  87.9246 241.9828 0002086  86.5584 273.5788 13.21827496172879
ONEWEB-0582             
1 54649U 22166H   26178.19883947  .00000021  00000+0  18821-4 0  9994
2 54649  87.9248 241.9821 0001954  85.2433 274.8924 13.21827301172845
ONEWEB-0583             
1 54650U 22166J   26178.21061932  .00000088  00000+0  18131-3 0  9997
2 54650  87.9243 242.0028 0002030  94.7806 265.3560 13.21825067172857
ONEWEB-0584             
1 54651U 22166K   26178.23078419 -.00003838  00000+0 -93245-2 0  9994
2 54651  87.9241 241.9843 0002087  93.9538 266.1835 13.21860958172845
ONEWEB-0585             
1 54652U 22166L   26178.17865592 -.00000003  00000+0 -39786-4 0  9997
2 54652  87.9249 241.9822 0002083 102.5506 257.5861 13.21827682172849
ONEWEB-0586             
1 54653U 22166M   26178.19211714  .00000086  00000+0  17674-3 0  9991
2 54653  87.9248 242.0048 0001944  94.0228 266.1128 13.21825299172846
ONEWEB-0587             
1 54654U 22166N   26178.20221068  .00000082  00000+0  16733-3 0  9998
2 54654  87.9260 241.9774 0002237 106.3300 253.8080 13.21825172173008
ONEWEB-0589             
1 54655U 22166P   26178.18875299  .00000086  00000+0  17673-3 0  9995
2 54655  87.9245 241.9910 0002061  73.4106 286.7254 13.21825625172861
ONEWEB-0590             
1 54656U 22166Q   26178.21383414  .00000024  00000+0  26269-4 0  9997
2 54656  87.9254 241.9772 0002496  94.0556 266.0863 13.21827866172853
ONEWEB-0591             
1 54657U 22166R   26178.22576028  .00000052  00000+0  95397-4 0  9993
2 54657  87.9247 241.9887 0002112  96.5736 263.5639 13.21826742172883
ONEWEB-0592             
1 54658U 22166S   26178.22910147 -.00000041  00000+0 -13000-3 0  9998
2 54658  87.9255 241.9669 0002060  97.7170 262.4198 13.21828290172763
ONEWEB-0593             
1 54659U 22166T   26178.17528989  .00000071  00000+0  14046-3 0  9994
2 54659  87.9247 241.9886 0001907  96.4060 263.7291 13.21825109172864
ONEWEB-0594             
1 54660U 22166U   26178.19546759  .00000096  00000+0  20108-3 0  9996
2 54660  87.9246 242.0008 0002003 102.6118 257.5240 13.21828333172884
ONEWEB-0595             
1 54661U 22166V   26178.24762250 -.00000007  00000+0 -48846-4 0  9993
2 54661  87.9256 241.9720 0002215 102.9690 257.1692 13.21824595172869
ONEWEB-0596             
1 54662U 22166W   26178.22238868 -.00000010  00000+0 -54946-4 0  9997
2 54662  87.9248 241.9878 0002138  99.7981 260.3394 13.21826378172861
