OBJECT_NAME,OBJECT_ID,EPOCH,MEAN_MOTION,ECCENTRICITY,INCLINATION,RA_OF_ASC_NODE,ARG_OF_PERICENTER,MEAN_ANOMALY,EPHEMERIS_TYPE,CLASSIFICATION_TYPE,NORAD_CAT_ID,ELEMENT_SET_NO,REV_AT_EPOCH,BSTAR,MEAN_MOTION_DOT,MEAN_MOTION_DDOT
ONEWEB-0522,2022-138AD,2026-06-27T07:14:47.409504,13.19725041,.0001771,87.9187,302.9429,102.8232,257.3099,0,U,54140,999,17814,.8009333E-4,.45E-6,0
ONEWEB-0523,2022-138AE,2026-06-27T06:09:20.677248,13.20772142,.00027151,87.9197,272.4342,90.1750,269.9694,0,U,54141,999,18063,-.4166036E-5,.11E-6,0
ONEWEB-0524,2022-138AF,2026-06-27T05:54:48.265344,13.20772043,.00028513,87.9195,272.4330,107.7153,252.4292,0,U,54142,999,18063,.40221761E-4,.29E-6,0
ONEWEB-0525,2022-138AG,2026-06-27T02:14:32.146368,13.19725639,.0001751,87.9186,302.9918,111.8900,248.2419,0,U,54143,999,17813,.37645171E-4,.28E-6,0
ONEWEB-0526,2022-138AH,2026-06-27T06:40:38.888832,13.19727196,.00019123,87.9187,302.9558,104.4897,255.6448,0,U,54144,999,17813,.972233E-4,.52E-6,0
ONEWEB-0529,2022-138AJ,2026-06-27T06:45:12.958272,13.19725782,.00018136,87.9179,302.9634,106.5537,253.5795,0,U,54145,999,17815,.19229277E-3,.9E-6,0
ONEWEB-0531,2022-138AK,2026-06-27T07:24:30.244896,13.20771602,.00028818,87.9197,272.4183,95.3481,264.7981,0,U,54146,999,18064,-.36740659E-4,-.2E-7,0
ONEWEB-0535,2022-138AL,2026-06-27T07:32:58.097184,13.19725961,.00021084,87.9187,302.9417,92.8216,267.3158,0,U,54147,999,17817,.1010671E-5,.13E-6,0
ONEWEB-0536,2022-138AM,2026-06-27T07:05:06.233856,13.20772033,.00030517,87.9184,272.4424,97.7308,262.4172,0,U,54148,999,18063,.11941519E-3,.62E-6,0
ONEWEB-0527,2022-166A,2026-06-27T04:02:44.394432,13.21824113,.00020455,87.9247,242.0114,99.8685,260.2680,0,U,54642,999,17285,-.11106155E-3,-.33E-6,0
ONEWEB-0528,2022-166B,2026-06-27T04:03:56.401056,13.21825006,.00019945,87.9248,242.0136,104.5745,255.5610,0,U,54643,999,17286,.93483632E-4,.52E-6,0
ONEWEB-0539,2022-166C,2026-06-27T04:58:26.184864,13.21827695,.0001889,87.9257,241.9783,93.0230,267.1120,0,U,54644,999,17286,.12598075E-3,.65E-6,0
ONEWEB-0540,2022-166D,2026-06-27T05:08:18.977856,13.21828079,.00020189,87.9247,242.0065,94.8491,265.2873,0,U,54645,999,17285,.21667657E-3,.103E-5,0
ONEWEB-0542,2022-166E,2026-06-27T05:12:58.756608,13.21824779,.0001895,87.9256,241.9751,90.9337,269.2014,0,U,54646,999,17286,.1117559E-3,.59E-6,0
ONEWEB-0545,2022-166F,2026-06-27T04:22:06.133152,13.21828981,.00018946,87.9248,241.9931,82.6794,277.4555,0,U,54647,999,17282,-.1663558E-5,.12E-6,0
ONEWEB-0580,2022-166G,2026-06-27T05:34:44.394528,13.21827496,.00020861,87.9246,241.9828,86.5584,273.5788,0,U,54648,999,17287,.72311832E-4,.43E-6,0
ONEWEB-0582,2022-166H,2026-06-27T04:46:19.730208,13.21827301,.00019545,87.9248,241.9821,85.2433,274.8924,0,U,54649,999,17284,.18821056E-4,.21E-6,0
ONEWEB-0583,2022-166J,2026-06-27T05:03:17.509248,13.21825067,.00020309,87.9243,242.0028,94.7806,265.3560,0,U,54650,999,17285,.18131246E-3,.88E-6,0
ONEWEB-0584,2022-166K,2026-06-27T05:32:19.754016,13.21860958,.0002087,87.9241,241.9843,93.9538,266.1835,0,U,54651,999,17284,-.93244858E-2,-.3838E-4,0
ONEWEB-0585,2022-166L,2026-06-27T04:17:15.871488,13.21827682,.00020837,87.9249,241.9822,102.5506,257.5861,0,U,54652,999,17284,-.39785714E-4,-.3E-7,0
ONEWEB-0586,2022-166M,2026-06-27T04:36:38.920896,13.21825299,.00019441,87.9248,242.0048,94.0228,266.1128,0,U,54653,999,17284,.17673548E-3,.86E-6,0
ONEWEB-0587,2022-166N,2026-06-27T04:51:11.002752,13.21825172,.00022372,87.9260,241.9774,106.3300,253.8080,0,U,54654,999,17300,.16732967E-3,.82E-6,0
ONEWEB-0589,2022-166P,2026-06-27T04:31:48.258336,13.21825625,.00020615,87.9245,241.9910,73.4106,286.7254,0,U,54655,999,17286,.17673285E-3,.86E-6,0
ONEWEB-0590,2022-166Q,2026-06-27T05:07:55.269696,13.21827866,.00024966,87.9254,241.9772,94.0556,266.0863,0,U,54656,999,17285,.26269245E-4,.24E-6,0
ONEWEB-0591,2022-166R,2026-06-27T05:25:05.688192,13.21826742,.00021123,87.9247,241.9887,96.5736,263.5639,0,U,54657,999,17288,.95397062E-4,.52E-6,0
ONEWEB-0592,2022-166S,2026-06-27T05:29:54.367008,13.21828290,.00020605,87.9255,241.9669,97.7170,262.4198,0,U,54658,999,17276,-.12999528E-3,-.41E-6,0
ONEWEB-0593,2022-166T,2026-06-27T04:12:25.046496,13.21825109,.00019079,87.9247,241.9886,96.4060,263.7291,0,U,54659,999,17286,.14046312E-3,.71E-6,0
ONEWEB-0594,2022-166U,2026-06-27T04:41:28.399776,13.21828333,.00020034,87.9246,242.0008,102.6118,257.5240,0,U,54660,999,17288,.2010801E-3,.96E-6,0
ONEWEB-0595,2022-166V,2026-06-27T05:56:34.584000,13.21824595,.00022157,87.9256,241.9720,102.9690,257.1692,0,U,54661,999,17286,-.48845777E-4,-.7E-7,0
ONEWEB-0596,2022-166W,2026-06-27T05:20:14.381952,13.21826378,.00021386,87.9248,241.9878,99.7981,260.3394,0,U,54662,999,17286,-.54946163E-4,-.1E-6,0
